{
  "type": "FeatureCollection",
  "features": [
    {
      "type": "Feature",
      "properties": {
        "norad_id": 60182,
        "name": "ALOS-4 (DAICHI-4)",
        "group": "resource",
        "lat": 51.515572430186644,
        "lon": 83.53096281744482,
        "alt_km": 625.5638533581096,
        "timestamp": "2025-12-24T22:42:21.680099+00:00",
        "meta_object_name": "ALOS-4 (DAICHI-4)",
        "meta_object_id": "2024-123A",
        "meta_epoch": "2025-12-24T09:29:07.451232",
        "meta_mean_motion": 14.79477942,
        "meta_eccentricity": 0.0001332,
        "meta_inclination": 97.9223,
        "meta_ra_of_asc_node": 93.0761,
        "meta_arg_of_pericenter": 100.4362,
        "meta_mean_anomaly": 259.7,
        "meta_ephemeris_type": 0,
        "meta_classification_type": "U",
        "meta_norad_cat_id": 60182,
        "meta_element_set_no": 999,
        "meta_rev_at_epoch": 8003,
        "meta_bstar": 0.00024039,
        "meta_mean_motion_dot": 1.744e-05,
        "meta_mean_motion_ddot": 0,
        "tle_line1": "1 60182U 24123A   25358.39522513  .00001744  00000+0  24039-3 0  9998",
        "tle_line2": "2 60182  97.9223  93.0761 0001332 100.4362 259.7000 14.79477942 80030"
      },
      "geometry": {
        "type": "Point",
        "coordinates": [
          83.53096281744482,
          51.515572430186644
        ]
      }
    },
    {
      "type": "Feature",
      "properties": {
        "norad_id": 60452,
        "name": "LEGION 3",
        "group": "resource",
        "lat": -7.147198277836648,
        "lon": -122.51883567713412,
        "alt_km": 518.3859596619614,
        "timestamp": "2025-12-24T22:42:21.680109+00:00",
        "meta_object_name": "LEGION 3",
        "meta_object_id": "2024-146A",
        "meta_epoch": "2025-12-24T03:46:17.167296",
        "meta_mean_motion": 15.15872673,
        "meta_eccentricity": 0.00157397,
        "meta_inclination": 45.0002,
        "meta_ra_of_asc_node": 248.9219,
        "meta_arg_of_pericenter": 259.5896,
        "meta_mean_anomaly": 100.3209,
        "meta_ephemeris_type": 0,
        "meta_classification_type": "U",
        "meta_norad_cat_id": 60452,
        "meta_element_set_no": 999,
        "meta_rev_at_epoch": 7546,
        "meta_bstar": 0.00028734713,
        "meta_mean_motion_dot": 5.346e-05,
        "meta_mean_motion_ddot": 0,
        "tle_line1": "1 60452U 24146A   25358.15714314  .00005346  00000+0  28735-3 0  9998",
        "tle_line2": "2 60452  45.0002 248.9219 0015739 259.5896 100.3209 15.15872673 75466"
      },
      "geometry": {
        "type": "Point",
        "coordinates": [
          -122.51883567713412,
          -7.147198277836648
        ]
      }
    },
    {
      "type": "Feature",
      "properties": {
        "norad_id": 60453,
        "name": "LEGION 4",
        "group": "resource",
        "lat": -7.69063315365089,
        "lon": -31.279826854796124,
        "alt_km": 514.0978455634768,
        "timestamp": "2025-12-24T22:42:21.680120+00:00",
        "meta_object_name": "LEGION 4",
        "meta_object_id": "2024-146B",
        "meta_epoch": "2025-12-24T05:21:25.426080",
        "meta_mean_motion": 15.15942975,
        "meta_eccentricity": 0.00082397,
        "meta_inclination": 45.0395,
        "meta_ra_of_asc_node": 340.3513,
        "meta_arg_of_pericenter": 14.7591,
        "meta_mean_anomaly": 345.3528,
        "meta_ephemeris_type": 0,
        "meta_classification_type": "U",
        "meta_norad_cat_id": 60453,
        "meta_element_set_no": 999,
        "meta_rev_at_epoch": 7432,
        "meta_bstar": 0.00034629727,
        "meta_mean_motion_dot": 6.499e-05,
        "meta_mean_motion_ddot": 0,
        "tle_line1": "1 60453U 24146B   25358.22321095  .00006499  00000+0  34630-3 0  9998",
        "tle_line2": "2 60453  45.0395 340.3513 0008239  14.7591 345.3528 15.15942975 74328"
      },
      "geometry": {
        "type": "Point",
        "coordinates": [
          -31.279826854796124,
          -7.69063315365089
        ]
      }
    },
    {
      "type": "Feature",
      "properties": {
        "norad_id": 60989,
        "name": "SENTINEL-2C",
        "group": "resource",
        "lat": -21.705923305645562,
        "lon": -112.18824198621483,
        "alt_km": 794.4533084706918,
        "timestamp": "2025-12-24T22:42:21.680130+00:00",
        "meta_object_name": "SENTINEL-2C",
        "meta_object_id": "2024-157A",
        "meta_epoch": "2025-12-24T04:58:56.875872",
        "meta_mean_motion": 14.30816913,
        "meta_eccentricity": 0.00013743,
        "meta_inclination": 98.5667,
        "meta_ra_of_asc_node": 70.5242,
        "meta_arg_of_pericenter": 104.0123,
        "meta_mean_anomaly": 256.1212,
        "meta_ephemeris_type": 0,
        "meta_classification_type": "U",
        "meta_norad_cat_id": 60989,
        "meta_element_set_no": 999,
        "meta_rev_at_epoch": 6796,
        "meta_bstar": 7.5136715e-05,
        "meta_mean_motion_dot": 1.53e-06,
        "meta_mean_motion_ddot": 0,
        "tle_line1": "1 60989U 24157A   25358.20760273  .00000153  00000+0  75137-4 0  9996",
        "tle_line2": "2 60989  98.5667  70.5242 0001374 104.0123 256.1212 14.30816913 67964"
      },
      "geometry": {
        "type": "Point",
        "coordinates": [
          -112.18824198621483,
          -21.705923305645562
        ]
      }
    },
    {
      "type": "Feature",
      "properties": {
        "norad_id": 61735,
        "name": "IONOSFERA-M 1",
        "group": "resource",
        "lat": 65.63872080132934,
        "lon": 68.56143725248158,
        "alt_km": 809.8330941251152,
        "timestamp": "2025-12-24T22:42:21.680145+00:00",
        "meta_object_name": "IONOSFERA-M 1",
        "meta_object_id": "2024-199A",
        "meta_epoch": "2025-12-24T06:59:13.208640",
        "meta_mean_motion": 14.22716497,
        "meta_eccentricity": 3.914e-05,
        "meta_inclination": 98.7403,
        "meta_ra_of_asc_node": 228.0503,
        "meta_arg_of_pericenter": 6.6398,
        "meta_mean_anomaly": 353.4785,
        "meta_ephemeris_type": 0,
        "meta_classification_type": "U",
        "meta_norad_cat_id": 61735,
        "meta_element_set_no": 999,
        "meta_rev_at_epoch": 10283,
        "meta_bstar": 4.7672595e-05,
        "meta_mean_motion_dot": 6.3e-07,
        "meta_mean_motion_ddot": 0,
        "tle_line1": "1 61735U 24199A   25358.29112510  .00000063  00000+0  47673-4 0  9990",
        "tle_line2": "2 61735  98.7403 228.0503 0000391   6.6398 353.4785 14.22716497102832"
      },
      "geometry": {
        "type": "Point",
        "coordinates": [
          68.56143725248158,
          65.63872080132934
        ]
      }
    },
    {
      "type": "Feature",
      "properties": {
        "norad_id": 61736,
        "name": "IONOSFERA-M 2",
        "group": "resource",
        "lat": -63.15866877623677,
        "lon": -113.69117012121073,
        "alt_km": 824.5709773743911,
        "timestamp": "2025-12-24T22:42:21.680155+00:00",
        "meta_object_name": "IONOSFERA-M 2",
        "meta_object_id": "2024-199B",
        "meta_epoch": "2025-12-24T06:07:48.917856",
        "meta_mean_motion": 14.22718682,
        "meta_eccentricity": 0.00018503,
        "meta_inclination": 98.7395,
        "meta_ra_of_asc_node": 227.9272,
        "meta_arg_of_pericenter": 95.7299,
        "meta_mean_anomaly": 264.409,
        "meta_ephemeris_type": 0,
        "meta_classification_type": "U",
        "meta_norad_cat_id": 61736,
        "meta_element_set_no": 999,
        "meta_rev_at_epoch": 10595,
        "meta_bstar": 4.498271e-05,
        "meta_mean_motion_dot": 5.7e-07,
        "meta_mean_motion_ddot": 0,
        "tle_line1": "1 61736U 24199B   25358.25542729  .00000057  00000+0  44983-4 0  9990",
        "tle_line2": "2 61736  98.7395 227.9272 0001850  95.7299 264.4090 14.22718682105958"
      },
      "geometry": {
        "type": "Point",
        "coordinates": [
          -113.69117012121073,
          -63.15866877623677
        ]
      }
    },
    {
      "type": "Feature",
      "properties": {
        "norad_id": 63772,
        "name": "BIOMASS",
        "group": "resource",
        "lat": -64.91496441541732,
        "lon": -158.57961815933024,
        "alt_km": 676.8455835432178,
        "timestamp": "2025-12-24T22:42:21.680166+00:00",
        "meta_object_name": "BIOMASS",
        "meta_object_id": "2025-090A",
        "meta_epoch": "2025-12-24T06:38:36.136032",
        "meta_mean_motion": 14.67534384,
        "meta_eccentricity": 0.000113,
        "meta_inclination": 98.0698,
        "meta_ra_of_asc_node": 183.1183,
        "meta_arg_of_pericenter": 84.8453,
        "meta_mean_anomaly": 275.2881,
        "meta_ephemeris_type": 0,
        "meta_classification_type": "U",
        "meta_norad_cat_id": 63772,
        "meta_element_set_no": 999,
        "meta_rev_at_epoch": 3503,
        "meta_bstar": 0.00022358344,
        "meta_mean_motion_dot": 1.22e-05,
        "meta_mean_motion_ddot": 0,
        "tle_line1": "1 63772U 25090A   25358.27680713  .00001220  00000+0  22358-3 0  9995",
        "tle_line2": "2 63772  98.0698 183.1183 0001130  84.8453 275.2881 14.67534384 35038"
      },
      "geometry": {
        "type": "Point",
        "coordinates": [
          -158.57961815933024,
          -64.91496441541732
        ]
      }
    }
  ]
}